0 FENGYUN 1C DEB
1 38167U 99025ERQ 13281.46459433  .00009335  00000-0  22348-2 0   636
2 38167 098.7780 008.9681 0118587 212.5876 146.8344 14.49541364184575
0 FENGYUN 1C DEB
1 38167U 99025ERQ 13284.01858372  .00010546  00000-0  24509-2 0   643
2 38167 098.8000 011.6412 0135416 200.0501 160.0800 14.49613088184940
0 FENGYUN 1C DEB
1 38167U 99025ERQ 13284.43262686  .00010706  00000-0  24973-2 0   650
2 38167 098.7930 012.0604 0133064 200.3116 159.3034 14.49625095185000
0 FENGYUN 1C DEB
1 38167U 99025ERQ 13285.46797748  .00011026  00000-0  25857-2 0   665
2 38167 098.7791 013.1193 0129331 200.7513 158.9516 14.49654907185157
0 FENGYUN 1C DEB
1 38167U 99025ERQ 13288.43587110  .00016501  00000-0  38708-2 0   678
2 38167 098.7793 016.2342 0125771 189.6102 170.9795 14.49795200185584
0 FENGYUN 1C DEB
1 38167U 99025ERQ 13291.48379779  .00023891  00000-0  55722-2 0   683
2 38167 098.7823 019.4124 0126156 181.0383 239.2098 14.49937135186026
